ONEWEB-0518             
1 54136U 22138Z   23154.79434001 -.00000016  00000+0 -71398-4 0  9998
2 54136  87.9215 165.6866 0002187  82.1738 277.9643 13.19726347 30507
ONEWEB-0519             
1 54137U 22138AA  23154.74378035 -.00000033  00000+0 -11419-3 0  9994
2 54137  87.9210 165.6620 0002687  87.7975 272.3465 13.19723416 30505
ONEWEB-0520             
1 54138U 22138AB  23154.77959180 -.00000020  00000+0 -82950-4 0  9999
2 54138  87.9215 165.6994 0002680  81.7458 278.3979 13.19723053 30499
ONEWEB-0521             
1 54139U 22138AC  23154.73538233  .00000009  00000+0 -10714-4 0  9993
2 54139  87.9259 165.6586 0002323  98.7840 261.3556 13.19726713 30435
ONEWEB-0522             
1 54140U 22138AD  23154.79223132  .00000002  00000+0 -26632-4 0  9999
2 54140  87.9220 165.6664 0002294  85.8216 274.3178 13.19727139 30485
ONEWEB-0523             
1 54141U 22138AE  23155.25001157  .00000015  00000+0  00000+0 0  9992
2 54141  87.6820 135.4590 0008195 246.3462 349.0961 13.64999671 33738
ONEWEB-0524             
1 54142U 22138AF  23155.25001157  .00000015  00000+0  00000+0 0  9993
2 54142  87.6572 135.4484 0005977 241.6414 306.5951 13.64918729 33737
ONEWEB-0525             
1 54143U 22138AG  23154.73327067  .00000088  00000+0  18838-3 0  9999
2 54143  87.9214 165.6704 0002493  86.5816 273.5602 13.19725136 30490
ONEWEB-0526             
1 54144U 22138AH  23154.76695580  .00000023  00000+0  26100-4 0  9992
2 54144  87.9188 165.6626 0002192  86.3042 273.8341 13.19722848 30477
ONEWEB-0529             
1 54145U 22138AJ  23154.77118329  .00000023  00000+0  25221-4 0  9998
2 54145  87.9226 165.6752 0002386  78.5903 281.5498 13.19722760 30499
ONEWEB-0531             
1 54146U 22138AK  23155.25001157  .00000015  00000+0  00000+0 0  9997
2 54146  87.6614 135.4357 0009403 245.7922  35.6326 13.66941485 33737
ONEWEB-0535             
1 54147U 22138AL  23154.72695324 -.00000061  00000+0 -18485-3 0  9997
2 54147  87.9224 165.6775 0002081 100.3788 259.7579 13.19724216 30508
ONEWEB-0536             
1 54148U 22138AM  23155.25001157  .00000015  00000+0  00000+0 0  9999
2 54148  87.6741 135.4452 0007525 236.6609 328.0187 13.65700445 33732
GONETS-M 23             
1 54150U 22139A   23155.09053705  .00000025  00000+0  10695-3 0  9997
2 54150  82.5045 317.4784 0021944 121.4646 238.8582 12.42885890 27865
GONETS-M 24             
1 54151U 22139B   23155.06149418  .00000036  00000+0  19093-3 0  9995
2 54151  82.4963 317.3023 0016830 130.5008 229.7541 12.42884545 27860
GONETS-M 25             
1 54152U 22139C   23155.04704953  .00000018  00000+0  54128-4 0  9994
2 54152  82.5028 317.4047 0020632 129.9321 230.3576 12.42875063 27867
SKIF-D                  
1 54153U 22139D   23154.64175790  .00000010  00000+0  00000+0 0  9998
2 54153  90.0037  96.7824 0006964 160.1577 199.9073  5.00436530  8593
STARLINK-5290           
1 54157U 22141A   23154.57614237  .00000086  00000+0  23491-4 0  9998
2 54157  53.2169 228.7559 0000788 113.5526 246.5549 15.08836185 33224
STARLINK-5297           
1 54158U 22141B   23154.58351205  .00000563  00000+0  53423-4 0  9991
2 54158  53.2164 228.8020 0000951  97.5778 262.5322 15.08838136 33221
STARLINK-5294           
1 54159U 22141C   23154.57982758  .00001292  00000+0  99229-4 0  9998
2 54159  53.2166 228.7836 0000775  85.2104 274.8977 15.08840905 33228
STARLINK-5233           
1 54160U 22141D   23154.49379257 -.00001308  00000+0 -64102-4 0  9997
2 54160  53.2170 184.0348 0001203  96.2263 263.8866 15.08833833 33847
STARLINK-5269           
1 54161U 22141E   23154.58078675  .00000356  00000+0  40475-4 0  9995
2 54161  53.2160 228.7816 0001463  77.2339 282.8816 15.08837357 33227
STARLINK-5273           
1 54162U 22141F   23155.03613696  .00000802  00000+0  68457-4 0  9991
2 54162  53.2165 226.6476 0001004  97.6336 262.4770 15.08837704 33292
STARLINK-5161           
1 54163U 22141G   23154.58443026  .00001384  00000+0  10498-3 0  9996
2 54163  53.2168 218.8300 0000884  76.3105 283.7986 15.08844272 33369
STARLINK-5278           
1 54164U 22141H   23154.58811655  .00000402  00000+0  43333-4 0  9999
2 54164  53.2164 218.8532 0000865  82.5114 277.5976 15.08839418 33367
STARLINK-5279           
1 54165U 22141J   23154.89999258 -.00001106  00000+0 -51438-4 0  9999
2 54165  53.2152 227.2193 0000810  99.8187 260.2896 15.08821132 33277
STARLINK-5280           
1 54166U 22141K   23154.97818649  .00000743  00000+0  64733-4 0  9999
2 54166  53.2160 217.0234 0000970  82.7613 277.3489 15.08840825 33426
STARLINK-5243           
1 54167U 22141L   23155.01402512  .00000856  00000+0  71872-4 0  9991
2 54167  53.2163 226.5098 0000923 111.7067 248.4024 15.08837046 33286
STARLINK-5245           
1 54168U 22141M   23154.57706478  .00000309  00000+0  37511-4 0  9995
2 54168  53.2163 218.7841 0001016  77.8643 282.2463 15.08840664 33364
STARLINK-5282           
1 54169U 22141N   23154.98915756  .00000407  00000+0  43619-4 0  9997
2 54169  53.2160 216.3928 0000740  63.9853 296.1216 15.08836128 33432
STARLINK-5155           
1 54170U 22141P   23154.57337652  .00000861  00000+0  72189-4 0  9995
2 54170  53.2156 218.7608 0000944  79.4387 280.6712 15.08844192 33361
STARLINK-5229           
1 54171U 22141Q   23154.88753847  .00000584  00000+0  54742-4 0  9995
2 54171  53.2150 222.1497 0000868  92.1590 267.9501 15.08836973 33344
STARLINK-5117           
1 54172U 22141R   23154.89721130  .00000353  00000+0  40281-4 0  9994
2 54172  53.2164 217.2294 0001023  74.9767 285.1338 15.08840299 33412
STARLINK-5242           
1 54173U 22141S   23154.46293164  .00000706  00000+0  62423-4 0  9993
2 54173  53.2160 218.7856 0000944  95.2869 264.8231 15.08836697 33355
STARLINK-5248           
1 54174U 22141T   23154.73576123  .00000035  00000+0  20295-4 0  9999
2 54174  53.2158 162.7251 0000964  85.8581 274.2521 15.08837858 34165
STARLINK-5256           
1 54175U 22141U   23154.90090008  .00000271  00000+0  35117-4 0  9993
2 54175  53.2163 217.2519 0000888  88.7152 271.3942 15.08836208 33416
STARLINK-5154           
1 54176U 22141V   23154.88615855  .00000415  00000+0  44138-4 0  9997
2 54176  53.2156 217.1604 0001111  89.3957 270.7162 15.08838321 33418
STARLINK-5186           
1 54177U 22141W   23154.95976583  .00000675  00000+0  60466-4 0  9994
2 54177  53.2163 216.9083 0000968  82.0425 278.0677 15.08840627 33429
STARLINK-5164           
1 54178U 22141X   23154.88342938  .00000413  00000+0  44006-4 0  9990
2 54178  53.2164 217.1212 0000894  83.3113 276.7981 15.08836070 33413
STARLINK-5122           
1 54179U 22141Y   23154.88984608  .00000877  00000+0  73205-4 0  9994
2 54179  53.2164 217.1826 0001035  86.4240 273.6871 15.08836902 33416
STARLINK-5228           
1 54180U 22141Z   23155.00021351  .00000923  00000+0  76057-4 0  9998
2 54180  53.2153 216.4511 0000908  94.5634 265.5462 15.08834396 33662
STARLINK-5227           
1 54181U 22141AA  23154.54759133  .00000422  00000+0  44611-4 0  9998
2 54181  53.2158 218.6020 0001034  96.1428 263.9682 15.08833083 33362
STARLINK-5231           
1 54182U 22141AB  23154.80522589  .00000026  00000+0  19743-4 0  9999
2 54182  53.2153 187.4565 0001056  84.5976 275.5136 15.08836150 33820
STARLINK-5239           
1 54183U 22141AC  23155.00389852  .00000891  00000+0  74023-4 0  9999
2 54183  53.2160 216.4744 0000659 103.6086 256.4980 15.08835787 33666
STARLINK-5162           
1 54184U 22141AD  23154.86404546 -.00001369  00000+0 -67980-4 0  9998
2 54184  53.2160 217.0225 0000704  72.9833 287.1236 15.08843532 33412
STARLINK-5235           
1 54185U 22141AE  23155.00758237  .00000765  00000+0  66127-4 0  9994
2 54185  53.2162 216.4975 0000822 101.7230 258.3855 15.08836550 33669
STARLINK-5194           
1 54186U 22141AF  23154.85031993 -.00001029  00000+0 -46587-4 0  9994
2 54186  53.2159 207.6646 0001108  96.5447 263.5671 15.08838289 33544
STARLINK-5240           
1 54187U 22141AG  23154.88247440  .00000464  00000+0  47251-4 0  9993
2 54187  53.2168 217.1459 0000933  88.5835 271.5264 15.08836702 33411
STARLINK-5238           
1 54188U 22141AH  23154.97911848  .00000185  00000+0  29707-4 0  9990
2 54188  53.2150 207.0468 0001165  89.7834 270.3292 15.08832233 33795
STARLINK-5182           
1 54189U 22141AJ  23154.87974570  .00000201  00000+0  30739-4 0  9997
2 54189  53.2168 217.0992 0001067  95.9884 264.1230 15.08836092 33647
STARLINK-5281           
1 54190U 22141AK  23154.84295196  .00000218  00000+0  31786-4 0  9997
2 54190  53.2152 207.6152 0001186  67.4361 292.6756 15.08846051 33545
STARLINK-4619           
1 54191U 22141AL  23154.85400705  .00000565  00000+0  53611-4 0  9999
2 54191  53.2158 207.6898 0001223  94.8012 265.3120 15.08835240 33548
STARLINK-5268           
1 54192U 22141AM  23154.87698484  .00000155  00000+0  27794-4 0  9993
2 54192  53.2156 207.1215 0001141  87.2923 272.8199 15.08840432 33550
STARLINK-5263           
1 54193U 22141AN  23154.83557850 -.00000029  00000+0  16265-4 0  9993
2 54193  53.2155 207.5731 0001167  99.0731 261.0393 15.08837419 33549
STARLINK-5271           
1 54194U 22141AP  23154.56325157 -.00000537  00000+0 -15657-4 0  9996
2 54194  53.2164 208.7169 0001258  98.1739 261.9396 15.08835980 33506
STARLINK-5258           
1 54195U 22141AQ  23154.83926291 -.00000276  00000+0  72730-6 0  9999
2 54195  53.2161 207.5963 0001129  88.4317 271.6804 15.08836874 33543
STARLINK-5237           
1 54196U 22141AR  23154.42340090  .00000184  00000+0  29655-4 0  9995
2 54196  53.2163 209.2684 0001199  80.7709 279.3419 15.08837617 33488
STARLINK-5234           
1 54197U 22141AS  23154.43445838 -.00000478  00000+0 -11966-4 0  9997
2 54197  53.2158 209.3355 0001220  92.3678 267.7453 15.08834242 33488
STARLINK-5246           
1 54198U 22141AT  23154.88339460  .00000022  00000+0  19481-4 0  9993
2 54198  53.2167 207.1626 0001145  83.7598 276.3525 15.08839341 33556
